CTC1_L_00482001-01
1 30227U 22276ZF  26037.47806713  .00000000  00000+0  00000-0 0  9996
2 30227  45.0000   0.0000 0000000   0.0000   0.0000 14.57888317    18
CTC1_L_00482002-01
1 30228U 22896EX  26037.47806713  .00000000  00000+0  00000-0 0  9995
2 30228  45.0000  12.0000 0000000   0.0000  48.0000 14.57888317    14
CTC1_L_00482003-01
1 30229U 22936WB  26037.47806713  .00000000  00000+0  00000-0 0  9991
2 30229  45.0000  24.0000 0000000   0.0000  96.0000 14.57888317    11
CTC1_L_00482004-01
1 30230U 25697KH  26037.47806713  .00000000  00000+0  00000-0 0  9990
2 30230  45.0000  36.0000 0000000   0.0000 144.0000 14.57888317    10
CTC1_L_00482005-01
1 30231U 22996VD  26037.47806713  .00000000  00000+0  00000-0 0  9990
2 30231  45.0000  48.0000 0000000   0.0000 192.0000 14.57888317    17
CTC1_L_00482006-01
1 30232U 23275SQ  26037.47806713  .00000000  00000+0  00000-0 0  9992
2 30232  45.0000  60.0000 0000000   0.0000 240.0000 14.57888317    16
CTC1_L_00482007-01
1 30233U 26900NZ  26037.47806713  .00000000  00000+0  00000-0 0  9991
2 30233  45.0000  72.0000 0000000   0.0000 288.0000 14.57888317    12
CTC1_L_00482008-01
1 30234U 26465DJ  26037.47806713  .00000000  00000+0  00000-0 0  9998
2 30234  45.0000  84.0000 0000000   0.0000 336.0000 14.57888317    10
CTC1_L_00482009-01
1 30235U 25395RO  26037.47806713  .00000000  00000+0  00000-0 0  9990
2 30235  45.0000  96.0000 0000000   0.0000  24.0000 14.57888317    18
CTC1_L_00482010-01
1 30236U 22087PV  26037.47806713  .00000000  00000+0  00000-0 0  9996
2 30236  45.0000 108.0000 0000000   0.0000  72.0000 14.57888317    16
CTC1_L_00482011-01
1 30237U 26868EC  26037.47806713  .00000000  00000+0  00000-0 0  9998
2 30237  45.0000 120.0000 0000000   0.0000 120.0000 14.57888317    15
CTC1_L_00482012-01
1 30238U 25904CA  26037.47806713  .00000000  00000+0  00000-0 0  9999
2 30238  45.0000 132.0000 0000000   0.0000 168.0000 14.57888317    11
CTC1_L_00482013-01
1 30239U 24493HF  26037.47806713  .00000000  00000+0  00000-0 0  9992
2 30239  45.0000 144.0000 0000000   0.0000 216.0000 14.57888317    19
CTC1_L_00482014-01
1 30240U 23323IB  26037.47806713  .00000000  00000+0  00000-0 0  9995
2 30240  45.0000 156.0000 0000000   0.0000 264.0000 14.57888317    17
CTC1_L_00482015-01
1 30241U 23743VR  26037.47806713  .00000000  00000+0  00000-0 0  9992
2 30241  45.0000 168.0000 0000000   0.0000 312.0000 14.57888317    15
CTC1_L_00482016-01
1 30242U 22912SH  26037.47806713  .00000000  00000+0  00000-0 0  9990
2 30242  45.0000 180.0000 0000000   0.0000   0.0000 14.57888317    14
CTC1_L_00482017-01
1 30243U 26862AE  26037.47806713  .00000000  00000+0  00000-0 0  9999
2 30243  45.0000 192.0000 0000000   0.0000  48.0000 14.57888317    10
CTC1_L_00482018-01
1 30244U 26256VP  26037.47806713  .00000000  00000+0  00000-0 0  9997
2 30244  45.0000 204.0000 0000000   0.0000  96.0000 14.57888317    18
CTC1_L_00482019-01
1 30245U 25544NW  26037.47806713  .00000000  00000+0  00000-0 0  9997
2 30245  45.0000 216.0000 0000000   0.0000 144.0000 14.57888317    16
CTC1_L_00482020-01
1 30246U 23059TC  26037.47806713  .00000000  00000+0  00000-0 0  9997
2 30246  45.0000 228.0000 0000000   0.0000 192.0000 14.57888317    13
CTC1_L_00482021-01
1 30247U 26121SK  26037.47806713  .00000000  00000+0  00000-0 0  9991
2 30247  45.0000 240.0000 0000000   0.0000 240.0000 14.57888317    12
CTC1_L_00482022-01
1 30248U 22327XV  26037.47806713  .00000000  00000+0  00000-0 0  9996
2 30248  45.0000 252.0000 0000000   0.0000 288.0000 14.57888317    18
CTC1_L_00482023-01
1 30249U 25312FN  26037.47806713  .00000000  00000+0  00000-0 0  9994
2 30249  45.0000 264.0000 0000000   0.0000 336.0000 14.57888317    16
CTC1_L_00482024-01
1 30250U 23559JC  26037.47806713  .00000000  00000+0  00000-0 0  9997
2 30250  45.0000 276.0000 0000000   0.0000  24.0000 14.57888317    15
CTC1_L_00482025-01
1 30251U 22631JN  26037.47806713  .00000000  00000+0  00000-0 0  9998
2 30251  45.0000 288.0000 0000000   0.0000  72.0000 14.57888317    12
CTC1_L_00482026-01
1 30252U 23451FW  26037.47806713  .00000000  00000+0  00000-0 0  9990
2 30252  45.0000 300.0000 0000000   0.0000 120.0000 14.57888317    12
CTC1_L_00482027-01
1 30253U 23396XU  26037.47806713  .00000000  00000+0  00000-0 0  9999
2 30253  45.0000 312.0000 0000000   0.0000 168.0000 14.57888317    18
CTC1_L_00482028-01
1 30254U 23112I   26037.47806713  .00000000  00000+0  00000-0 0  9996
2 30254  45.0000 324.0000 0000000   0.0000 216.0000 14.57888317    16
CTC1_L_00482029-01
1 30255U 23727QN  26037.47806713  .00000000  00000+0  00000-0 0  9999
2 30255  45.0000 336.0000 0000000   0.0000 264.0000 14.57888317    13
CTC1_L_00482030-01
1 30256U 23694MB  26037.47806713  .00000000  00000+0  00000-0 0  9993
2 30256  45.0000 348.0000 0000000   0.0000 312.0000 14.57888317    11
